ONEWEB-0228             
1 48780U 21045P   24128.54000174  .00000078  00000+0  17335-3 0  9993
2 48780  87.9047  52.5352 0001873  82.9889 277.1454 13.15550067143000
